[{"OBJECT_NAME":"JILIN-1 08","OBJECT_ID":"2018-008F","EPOCH":"2026-03-09T22:37:53.184288","MEAN_MOTION":15.32205976,"ECCENTRICITY":0.00081321,"INCLINATION":97.1902,"RA_OF_ASC_NODE":90.9961,"ARG_OF_PERICENTER":76.0646,"MEAN_ANOMALY":284.15,"EPHEMERIS_TYPE":0,"CLASSIFICATION_TYPE":"U","NORAD_CAT_ID":43160,"ELEMENT_SET_NO":999,"REV_AT_EPOCH":44974,"BSTAR":0.00036689195,"MEAN_MOTION_DOT":0.00011349,"MEAN_MOTION_DDOT":0},{"OBJECT_NAME":"STARLINK-2098","OBJECT_ID":"2021-005AF","EPOCH":"2026-03-09T02:03:46.038528","MEAN_MOTION":15.30199006,"ECCENTRICITY":0.00012278,"INCLINATION":53.1592,"RA_OF_ASC_NODE":16.9696,"ARG_OF_PERICENTER":84.6552,"MEAN_ANOMALY":275.4589,"EPHEMERIS_TYPE":0,"CLASSIFICATION_TYPE":"U","NORAD_CAT_ID":47378,"ELEMENT_SET_NO":999,"REV_AT_EPOCH":28362,"BSTAR":-9.8556e-8,"MEAN_MOTION_DOT":-3.62e-6,"MEAN_MOTION_DDOT":0}]
